ORBCOMM FM33            
1 25983U 99065D   25323.75640581  .00001376  00000+0  47352-3 0  9997
2 25983  45.0288 339.1208 0006533 137.4222 222.7135 14.40445806358497
ORBCOMM FM36            
1 25984U 99065E   25323.71369604  .00001654  00000+0  58115-3 0  9996
2 25984  45.0385  73.6144 0001573 337.9686  22.1095 14.38617613356810
ORBCOMM FM35            
1 25985U 99065F   25323.66820423  .00001241  00000+0  45759-3 0  9994
2 25985  45.0390  80.1224 0003533 119.2113 240.9089 14.37531739357157
ORBCOMM FM34            
1 25986U 99065G   25323.77310881  .00001170  00000+0  43424-3 0  9997
2 25986  45.0381  80.0870 0002478  57.8186 302.2903 14.37497248357285
ORBCOMM FM38            
1 33060U 08031A   25323.92709623  .00002149  00000+0  29396-3 0  9994
2 33060  48.4396 292.6708 0005060 348.2977  11.7821 14.82121064937843
ORBCOMM FM41            
1 33061U 08031B   25323.91151510  .00002171  00000+0  29977-3 0  9990
2 33061  48.4439 301.0739 0004429 332.0415  48.0994 14.81678928937329
ORBCOMM FM29            
1 33062U 08031C   25323.22356106  .00002476  00000+0  33705-3 0  9995
2 33062  48.4386 311.9599 0006146 329.6840 126.4179 14.81814615937137
ORBCOMM FM39            
1 33063U 08031D   25323.72949556  .00001949  00000+0  28090-3 0  9993
2 33063  48.4405 335.5698 0007234 303.6699  56.3526 14.80272709936839
